0 SL-12 R/B(2)
1 16732U 86038D   13280.61602587 -.00000241  00000-0  10000-3 0  5351
2 16732 014.2938 358.2680 0022492 061.3708 298.8655 01.01370877 77634
0 SL-12 R/B(2)
1 16732U 86038D   13283.57535340 -.00000169  00000-0  10000-3 0  5361
2 16732 014.2943 358.2368 0022525 061.5944 298.6382 01.01369337 77661
0 SL-12 R/B(2)
1 16732U 86038D   13283.57539118  .00000000  00000-0  10000-3 0  5372
2 16732 014.2939 358.2377 0022147 060.3959 299.8354 01.01365090 77663
0 SL-12 R/B(2)
1 16732U 86038D   13284.56180841 -.00000143  00000-0  10000-3 0  5376
2 16732 014.2948 358.2266 0022194 060.8577 299.3697 01.01368858 77674
0 SL-12 R/B(2)
1 16732U 86038D   13287.52117993 -.00000065  00000-0  10000-3 0  5387
2 16732 014.2954 358.1957 0022377 060.5188 299.6971 01.01367749 77705
0 SL-12 R/B(2)
1 16732U 86038D   13290.48058613  .00000002  00000-0  10000-3 0  5390
2 16732 014.2959 358.1646 0022486 060.7756 299.4349 01.01367235 77739
0 SL-12 R/B(2)
1 16732U 86038D   13290.48059521  .00000000  00000-0  10000-3 0  5409
2 16732 014.2955 358.1650 0022202 060.7558 299.4563 01.01363275 77734
0 SL-12 R/B(2)
1 16732U 86038D   13293.44000679  .00000049  00000-0  10000-3 0  5401
2 16732 014.2963 358.1335 0022556 060.9009 299.3092 01.01367367 77763
